{"fetched_at":"2026-07-12T17:33:05.160Z","source":"https://celestrak.org/NORAD/elements/gp.php?NAME=SPACEMOBILE&FORMAT=JSON","constellation":"ast-spacemobile","records":[{"OBJECT_NAME":"SPACEMOBILE-003","OBJECT_ID":"2024-163A","EPOCH":"2026-07-12T02:59:11.082912","CLASSIFICATION_TYPE":"U","MEAN_MOTION":15.20757146,"ECCENTRICITY":0.00039532,"INCLINATION":52.9645,"RA_OF_ASC_NODE":194.7701,"ARG_OF_PERICENTER":176.8899,"MEAN_ANOMALY":183.212,"EPHEMERIS_TYPE":0,"NORAD_CAT_ID":61045,"ELEMENT_SET_NO":999,"REV_AT_EPOCH":10156,"BSTAR":0.000015017438,"MEAN_MOTION_DOT":8e-8,"MEAN_MOTION_DDOT":0},{"OBJECT_NAME":"SPACEMOBILE-005","OBJECT_ID":"2024-163B","EPOCH":"2026-07-12T08:53:56.033088","CLASSIFICATION_TYPE":"U","MEAN_MOTION":15.20767447,"ECCENTRICITY":0.0008681,"INCLINATION":52.9783,"RA_OF_ASC_NODE":193.577,"ARG_OF_PERICENTER":187.3412,"MEAN_ANOMALY":172.7457,"EPHEMERIS_TYPE":0,"NORAD_CAT_ID":61046,"ELEMENT_SET_NO":999,"REV_AT_EPOCH":10159,"BSTAR":0.00015376,"MEAN_MOTION_DOT":0.00003105,"MEAN_MOTION_DDOT":0},{"OBJECT_NAME":"SPACEMOBILE-001","OBJECT_ID":"2024-163C","EPOCH":"2026-07-11T10:46:43.885920","CLASSIFICATION_TYPE":"U","MEAN_MOTION":15.20792937,"ECCENTRICITY":0.00074751,"INCLINATION":52.9736,"RA_OF_ASC_NODE":197.5273,"ARG_OF_PERICENTER":183.3179,"MEAN_ANOMALY":176.7767,"EPHEMERIS_TYPE":0,"NORAD_CAT_ID":61047,"ELEMENT_SET_NO":999,"REV_AT_EPOCH":10145,"BSTAR":0.000028550562,"MEAN_MOTION_DOT":0.00000309,"MEAN_MOTION_DDOT":0},{"OBJECT_NAME":"SPACEMOBILE-002","OBJECT_ID":"2024-163D","EPOCH":"2026-07-11T00:55:48.887328","CLASSIFICATION_TYPE":"U","MEAN_MOTION":15.20841812,"ECCENTRICITY":0.00066201,"INCLINATION":52.9623,"RA_OF_ASC_NODE":199.4399,"ARG_OF_PERICENTER":180.999,"MEAN_ANOMALY":179.0992,"EPHEMERIS_TYPE":0,"NORAD_CAT_ID":61048,"ELEMENT_SET_NO":999,"REV_AT_EPOCH":10139,"BSTAR":0.00038280824,"MEAN_MOTION_DOT":0.00008243,"MEAN_MOTION_DDOT":0},{"OBJECT_NAME":"SPACEMOBILE-004","OBJECT_ID":"2024-163E","EPOCH":"2026-07-12T00:10:13.520352","CLASSIFICATION_TYPE":"U","MEAN_MOTION":15.20795354,"ECCENTRICITY":0.00060954,"INCLINATION":52.9667,"RA_OF_ASC_NODE":194.7854,"ARG_OF_PERICENTER":215.6608,"MEAN_ANOMALY":144.3979,"EPHEMERIS_TYPE":0,"NORAD_CAT_ID":61049,"ELEMENT_SET_NO":999,"REV_AT_EPOCH":10154,"BSTAR":0.0005333705,"MEAN_MOTION_DOT":0.00011603,"MEAN_MOTION_DDOT":0},{"OBJECT_NAME":"SPACEMOBILE-001 DEB","OBJECT_ID":"2024-163F","EPOCH":"2026-07-12T07:33:34.577856","CLASSIFICATION_TYPE":"U","MEAN_MOTION":15.353535,"ECCENTRICITY":0.0005863,"INCLINATION":52.9921,"RA_OF_ASC_NODE":161.0599,"ARG_OF_PERICENTER":241.6175,"MEAN_ANOMALY":118.4235,"EPHEMERIS_TYPE":0,"NORAD_CAT_ID":62369,"ELEMENT_SET_NO":999,"REV_AT_EPOCH":9036,"BSTAR":0.00019283,"MEAN_MOTION_DOT":0.00006343,"MEAN_MOTION_DDOT":0},{"OBJECT_NAME":"SPACEMOBILE-002 DEB","OBJECT_ID":"2024-163G","EPOCH":"2026-07-12T07:23:09.595680","CLASSIFICATION_TYPE":"U","MEAN_MOTION":15.43744781,"ECCENTRICITY":0.0004521,"INCLINATION":52.9412,"RA_OF_ASC_NODE":145.4068,"ARG_OF_PERICENTER":276.8449,"MEAN_ANOMALY":83.2041,"EPHEMERIS_TYPE":0,"NORAD_CAT_ID":62370,"ELEMENT_SET_NO":999,"REV_AT_EPOCH":10224,"BSTAR":0.00026604,"MEAN_MOTION_DOT":0.00011814,"MEAN_MOTION_DDOT":0},{"OBJECT_NAME":"SPACEMOBILE-003 DEB","OBJECT_ID":"2024-163H","EPOCH":"2026-07-12T06:32:30.581952","CLASSIFICATION_TYPE":"U","MEAN_MOTION":15.41491863,"ECCENTRICITY":0.0005492,"INCLINATION":52.9681,"RA_OF_ASC_NODE":152.4208,"ARG_OF_PERICENTER":225.9098,"MEAN_ANOMALY":134.1454,"EPHEMERIS_TYPE":0,"NORAD_CAT_ID":62371,"ELEMENT_SET_NO":999,"REV_AT_EPOCH":9575,"BSTAR":0.00028126,"MEAN_MOTION_DOT":0.00011583,"MEAN_MOTION_DDOT":0},{"OBJECT_NAME":"SPACEMOBILE-004 DEB","OBJECT_ID":"2024-163J","EPOCH":"2026-07-12T06:57:06.600672","CLASSIFICATION_TYPE":"U","MEAN_MOTION":15.40709716,"ECCENTRICITY":0.0002797,"INCLINATION":52.9828,"RA_OF_ASC_NODE":151.9724,"ARG_OF_PERICENTER":250.9273,"MEAN_ANOMALY":109.1427,"EPHEMERIS_TYPE":0,"NORAD_CAT_ID":62372,"ELEMENT_SET_NO":999,"REV_AT_EPOCH":9882,"BSTAR":0.00024193,"MEAN_MOTION_DOT":0.0000964,"MEAN_MOTION_DDOT":0},{"OBJECT_NAME":"SPACEMOBILE-005 DEB","OBJECT_ID":"2024-163K","EPOCH":"2026-07-12T08:03:38.686752","CLASSIFICATION_TYPE":"U","MEAN_MOTION":15.34620955,"ECCENTRICITY":0.0005814,"INCLINATION":52.9725,"RA_OF_ASC_NODE":165.8525,"ARG_OF_PERICENTER":218.9929,"MEAN_ANOMALY":141.0653,"EPHEMERIS_TYPE":0,"NORAD_CAT_ID":62373,"ELEMENT_SET_NO":999,"REV_AT_EPOCH":10198,"BSTAR":0.00020278,"MEAN_MOTION_DOT":0.00006529,"MEAN_MOTION_DDOT":0},{"OBJECT_NAME":"SPACEMOBILE-006","OBJECT_ID":"2025-309A","EPOCH":"2026-07-12T02:49:34.429440","CLASSIFICATION_TYPE":"U","MEAN_MOTION":15.1864887,"ECCENTRICITY":0.00103537,"INCLINATION":52.9937,"RA_OF_ASC_NODE":217.4329,"ARG_OF_PERICENTER":205.0874,"MEAN_ANOMALY":154.9618,"EPHEMERIS_TYPE":0,"NORAD_CAT_ID":67232,"ELEMENT_SET_NO":999,"REV_AT_EPOCH":3038,"BSTAR":0.000029209109,"MEAN_MOTION_DOT":0.00000291,"MEAN_MOTION_DDOT":0},{"OBJECT_NAME":"SPACEMOBILE-008","OBJECT_ID":"2026-139A","EPOCH":"2026-07-12T01:08:45.878208","CLASSIFICATION_TYPE":"U","MEAN_MOTION":15.12799678,"ECCENTRICITY":0.00049165,"INCLINATION":52.9943,"RA_OF_ASC_NODE":149.697,"ARG_OF_PERICENTER":49.0948,"MEAN_ANOMALY":311.0468,"EPHEMERIS_TYPE":0,"NORAD_CAT_ID":69589,"ELEMENT_SET_NO":999,"REV_AT_EPOCH":374,"BSTAR":0.000015283293,"MEAN_MOTION_DOT":-3e-7,"MEAN_MOTION_DDOT":0},{"OBJECT_NAME":"SPACEMOBILE-009","OBJECT_ID":"2026-139B","EPOCH":"2026-07-12T12:17:15.485856","CLASSIFICATION_TYPE":"U","MEAN_MOTION":15.12693207,"ECCENTRICITY":0.0005188,"INCLINATION":52.9935,"RA_OF_ASC_NODE":147.6033,"ARG_OF_PERICENTER":45.7996,"MEAN_ANOMALY":314.342,"EPHEMERIS_TYPE":0,"NORAD_CAT_ID":69590,"ELEMENT_SET_NO":999,"REV_AT_EPOCH":381,"BSTAR":0.000010977,"MEAN_MOTION_DOT":-0.00000107,"MEAN_MOTION_DDOT":0},{"OBJECT_NAME":"SPACEMOBILE-010","OBJECT_ID":"2026-139C","EPOCH":"2026-07-12T06:00:42.241824","CLASSIFICATION_TYPE":"U","MEAN_MOTION":15.12524273,"ECCENTRICITY":0.0005089,"INCLINATION":52.9941,"RA_OF_ASC_NODE":148.8229,"ARG_OF_PERICENTER":36.8911,"MEAN_ANOMALY":323.2429,"EPHEMERIS_TYPE":0,"NORAD_CAT_ID":69591,"ELEMENT_SET_NO":999,"REV_AT_EPOCH":378,"BSTAR":0.000013955,"MEAN_MOTION_DOT":-5.5e-7,"MEAN_MOTION_DDOT":0}]}
